SL-14 R/B               
1 20511U 90018B   26177.59754637  .00000370  00000+0  43345-4 0  9998
2 20511  82.5218 121.3123 0017719  93.3096 267.0146 14.82221994938711
HST                     
1 20580U 90037B   26177.59632385  .00006617  00000+0  20803-3 0  9993
2 20580  28.4732  16.2651 0001399 256.6270 103.4171 15.30851283790014
SL-16 R/B               
1 20625U 90046B   26177.70354831 -.00000212  00000+0 -84944-4 0  9997
2 20625  71.0000  68.9628 0012707 146.6774 213.5151 14.15026413863817
COSMOS 2084             
1 20663U 90055A   26177.68849878  .00002242  00000+0  16606-3 0  9998
2 20663  62.7909 323.6599 0006104 295.4813  64.5656 15.06153598952733
SL-6 R/B(2)             
1 20666U 90055D   26177.62339778  .00001308  00000+0  10712-3 0  9992
2 20666  62.7810 243.2656 0042218   6.4132 353.7499 15.04029533954579
SL-8 R/B                
1 20775U 90078B   26177.64768443  .00026595  00000+0  75162-3 0  9990
2 20775  82.9010 153.0940 0348243   6.5713 353.9895 14.92773790825535
SL-8 R/B                
1 21088U 91006B   26177.72376747  .00000050  00000+0  34619-4 0  9992
2 21088  82.9425  88.9396 0023881  89.3977 331.1147 13.77506699779083
OKEAN-3                 
1 21397U 91039A   26177.57759796  .00002187  00000+0  15052-3 0  9995
2 21397  82.5165 231.2762 0012971 322.9741  37.0590 15.05367965881415
COSMOS 2151             
1 21422U 91042A   26177.72955006  .00001715  00000+0  13390-3 0  9996
2 21422  82.4965 338.4709 0013499  55.1868 305.0624 15.00463495879540
SL-14 R/B               
1 21423U 91042B   26177.53853485  .00000325  00000+0  38133-4 0  9993
2 21423  82.4935 118.1266 0015562 241.0292 118.9362 14.81907810869191
ERS-1                   
1 21574U 91050A   26177.68733941  .00000271  00000+0  10131-3 0  9996
2 21574  98.7794 198.6175 0030854 237.7200 122.0997 14.39522387831414
ARIANE 40 R/B           
1 21610U 91050F   26177.75698032  .00000250  00000+0  87141-4 0  9999
2 21610  98.1871 225.8010 0004470 100.7226 259.4468 14.42962086834721
INTERCOSMOS 25          
1 21819U 91086A   26177.68617645  .00000809  00000+0  16073-3 0  9997
2 21819  82.6040 244.0617 1483979 241.8810 102.4615 12.12211607509895
SL-8 R/B                
1 21876U 92008B   26177.52563549  .00000157  00000+0  14574-3 0  9991
2 21876  82.9259 186.8440 0034427 188.2129 328.7266 13.75979382724385
SL-8 R/B                
1 21938U 92020B   26177.72727666  .00000059  00000+0  45090-4 0  9997
2 21938  82.9304  72.7714 0029048 356.3324  59.3252 13.75549818716122
USA 81                  
1 21949U 92023A   26177.70543616  .00000143  00000+0  45508-4 0  9999
2 21949  85.0070  68.5140 0002639  76.6481 283.5006 14.32400482110399
COSMOS 2219             
1 22219U 92076A   26177.38648576  .00000314  00000+0  18957-3 0  9990
2 22219  71.0596 150.8404 0017062  28.5916 331.6138 14.14105743733744
SL-16 R/B               
1 22220U 92076B   26177.49117603 -.00000086  00000+0 -18760-4 0  9997
2 22220  71.0013 319.1810 0014973 286.4312 139.8667 14.16875684737248
COSMOS 2221             
1 22236U 92080A   26177.43290320  .00001452  00000+0  12513-3 0  9996
2 22236  82.5031 174.9062 0014107 180.0754 180.0469 14.96555515797055
SL-16 R/B               
1 22285U 92093B   26177.64149588  .00000190  00000+0  12145-3 0  9995
2 22285  71.0205 135.5438 0003475 170.1000 190.0192 14.15460941728579
COSMOS 2228             
1 22286U 92094A   26177.70906334  .00001824  00000+0  15344-3 0  9993
2 22286  82.5178 132.9222 0016130 297.7726  62.1861 14.97619029792375
SL-16 R/B               
1 22566U 93016B   26177.76389286 -.00000156  00000+0 -55805-4 0  9992
2 22566  71.0088 346.0920 0009560 170.0171 190.1144 14.15315687717600
COSMOS 2242             
1 22626U 93024A   26177.67286519  .00001609  00000+0  13762-3 0  9990
2 22626  82.5182 162.4673 0014660 302.1017  57.8781 14.96930326796692
SL-16 R/B               
1 22803U 93059B   26177.59477697  .00000057  00000+0  51979-4 0  9994
2 22803  70.9891 141.4646 0015642  38.3226 321.9005 14.17247266694963
ARIANE 40 R/B           
1 22830U 93061H   26177.70201622  .00000152  00000+0  71413-4 0  9994
2 22830  98.4816 244.3613 0009883 326.9997  33.0569 14.32911336709712
COSMOS 2278             
1 23087U 94023A   26177.72374998 -.00000161  00000+0 -59546-4 0  9992
2 23087  71.0552 306.9721 0010455 232.3460 127.6714 14.14398295660225
SL-16 R/B               
1 23088U 94023B   26177.43850036 -.00000076  00000+0 -14650-4 0  9995
2 23088  70.9986 202.5028 0002108 179.4495 180.6630 14.15027639661477
SL-16 R/B               
1 23343U 94074B   26177.56679979  .00000389  00000+0  58635-4 0  9990
2 23343  97.6988 203.8969 0005595 215.8596 304.8232 14.79509561703347
SL-16 R/B               
1 23405U 94077B   26177.58967356  .00000150  00000+0  10133-3 0  9999
2 23405  70.9828 123.3814 0003446 319.8006  40.2861 14.15577160631644
ARIANE 40+ R/B          
1 23561U 95021B   26177.72373575  .00000225  00000+0  85518-4 0  9995
2 23561  98.4409 247.6608 0007065 165.3813 307.1483 14.39838140634933
SL-16 R/B               
1 23705U 95058B   26177.74322608 -.00000081  00000+0 -17253-4 0  9991
2 23705  71.0229 311.2944 0014373 307.2961  52.6851 14.15512015583288
