OBJECT_NAME,OBJECT_ID,EPOCH,MEAN_MOTION,ECCENTRICITY,INCLINATION,RA_OF_ASC_NODE,ARG_OF_PERICENTER,MEAN_ANOMALY,EPHEMERIS_TYPE,CLASSIFICATION_TYPE,NORAD_CAT_ID,ELEMENT_SET_NO,REV_AT_EPOCH,BSTAR,MEAN_MOTION_DOT,MEAN_MOTION_DDOT
SL-14 R/B,1990-018B,2026-06-26T14:20:28.006368,14.82221994,.0017719,82.5218,121.3123,93.3096,267.0146,0,U,20511,999,93871,.43345E-4,.37E-5,0
HST,1990-037B,2026-06-26T14:18:42.380640,15.30851283,.0001399,28.4732,16.2651,256.6270,103.4171,0,U,20580,999,79001,.20803E-3,.6617E-4,0
SL-16 R/B,1990-046B,2026-06-26T16:53:06.573984,14.15026413,.0012707,71.0000,68.9628,146.6774,213.5151,0,U,20625,999,86381,-.84944E-4,-.212E-5,0
COSMOS 2084,1990-055A,2026-06-26T16:31:26.294592,15.06153598,.0006104,62.7909,323.6599,295.4813,64.5656,0,U,20663,999,95273,.16606E-3,.2242E-4,0
SL-6 R/B(2),1990-055D,2026-06-26T14:57:41.568192,15.04029533,.0042218,62.7810,243.2656,6.4132,353.7499,0,U,20666,999,95457,.10712E-3,.1308E-4,0
SL-8 R/B,1990-078B,2026-06-26T15:32:39.934752,14.92773790,.0348243,82.9010,153.0940,6.5713,353.9895,0,U,20775,999,82553,.75162E-3,.26595E-3,0
SL-8 R/B,1991-006B,2026-06-26T17:22:13.509408,13.77506699,.0023881,82.9425,88.9396,89.3977,331.1147,0,U,21088,999,77908,.34619E-4,.5E-6,0
OKEAN-3,1991-039A,2026-06-26T13:51:44.463744,15.05367965,.0012971,82.5165,231.2762,322.9741,37.0590,0,U,21397,999,88141,.15052E-3,.2187E-4,0
COSMOS 2151,1991-042A,2026-06-26T17:30:33.125184,15.00463495,.0013499,82.4965,338.4709,55.1868,305.0624,0,U,21422,999,87954,.1339E-3,.1715E-4,0
SL-14 R/B,1991-042B,2026-06-26T12:55:29.411040,14.81907810,.0015562,82.4935,118.1266,241.0292,118.9362,0,U,21423,999,86919,.38133E-4,.325E-5,0
ERS-1,1991-050A,2026-06-26T16:29:46.125024,14.39522387,.0030854,98.7794,198.6175,237.7200,122.0997,0,U,21574,999,83141,.10131E-3,.271E-5,0
ARIANE 40 R/B,1991-050F,2026-06-26T18:10:03.099648,14.42962086,.000447,98.1871,225.8010,100.7226,259.4468,0,U,21610,999,83472,.87141E-4,.25E-5,0
INTERCOSMOS 25,1991-086A,2026-06-26T16:28:05.645280,12.12211607,.1483979,82.6040,244.0617,241.8810,102.4615,0,U,21819,999,50989,.16073E-3,.809E-5,0
SL-8 R/B,1992-008B,2026-06-26T12:36:54.906336,13.75979382,.0034427,82.9259,186.8440,188.2129,328.7266,0,U,21876,999,72438,.14574E-3,.157E-5,0
SL-8 R/B,1992-020B,2026-06-26T17:27:16.703424,13.75549818,.0029048,82.9304,72.7714,356.3324,59.3252,0,U,21938,999,71612,.4509E-4,.59E-6,0
USA 81,1992-023A,2026-06-26T16:55:49.684224,14.32400482,.0002639,85.0070,68.5140,76.6481,283.5006,0,U,21949,999,11039,.45508E-4,.143E-5,0
COSMOS 2219,1992-076A,2026-06-26T09:16:32.369664,14.14105743,.00170624,71.0596,150.8404,28.5916,331.6138,0,U,22219,999,73374,.18957331E-3,.314E-5,0
SL-16 R/B,1992-076B,2026-06-26T11:47:17.608992,14.16875684,.00149734,71.0013,319.1810,286.4312,139.8667,0,U,22220,999,73724,-.18760188E-4,-.86E-6,0
COSMOS 2221,1992-080A,2026-06-26T10:23:22.836480,14.96555515,.00141075,82.5031,174.9062,180.0754,180.0469,0,U,22236,999,79705,.12513331E-3,.1452E-4,0
SL-16 R/B,1992-093B,2026-06-26T15:23:45.244032,14.15460941,.0003475,71.0205,135.5438,170.1000,190.0192,0,U,22285,999,72857,.12145E-3,.19E-5,0
COSMOS 2228,1992-094A,2026-06-26T17:01:03.072576,14.97619029,.001613,82.5178,132.9222,297.7726,62.1861,0,U,22286,999,79237,.15344E-3,.1824E-4,0
SL-16 R/B,1993-016B,2026-06-26T18:20:00.343104,14.15315687,.000956,71.0088,346.0920,170.0171,190.1144,0,U,22566,999,71760,-.55805E-4,-.156E-5,0
COSMOS 2242,1993-024A,2026-06-26T16:08:55.552416,14.96930326,.001466,82.5182,162.4673,302.1017,57.8781,0,U,22626,999,79669,.13762E-3,.1609E-4,0
SL-16 R/B,1993-059B,2026-06-26T14:16:28.730208,14.17247266,.0015642,70.9891,141.4646,38.3226,321.9005,0,U,22803,999,69496,.51979E-4,.57E-6,0
ARIANE 40 R/B,1993-061H,2026-06-26T16:50:54.201408,14.32911336,.0009883,98.4816,244.3613,326.9997,33.0569,0,U,22830,999,70971,.71413E-4,.152E-5,0
COSMOS 2278,1994-023A,2026-06-26T17:22:11.998272,14.14398295,.0010455,71.0552,306.9721,232.3460,127.6714,0,U,23087,999,66022,-.59546E-4,-.161E-5,0
SL-16 R/B,1994-023B,2026-06-26T10:31:26.431104,14.15027639,.0002108,70.9986,202.5028,179.4495,180.6630,0,U,23088,999,66147,-.1465E-4,-.76E-6,0
SL-16 R/B,1994-074B,2026-06-26T13:36:11.501856,14.79509561,.0005595,97.6988,203.8969,215.8596,304.8232,0,U,23343,999,70334,.58635E-4,.389E-5,0
SL-16 R/B,1994-077B,2026-06-26T14:09:07.795584,14.15577160,.0003446,70.9828,123.3814,319.8006,40.2861,0,U,23405,999,63164,.10133E-3,.15E-5,0
ARIANE 40+ R/B,1995-021B,2026-06-26T17:22:10.768800,14.39838140,.0007065,98.4409,247.6608,165.3813,307.1483,0,U,23561,999,63493,.85518E-4,.225E-5,0
SL-16 R/B,1995-058B,2026-06-26T17:50:14.733312,14.15512015,.0014373,71.0229,311.2944,307.2961,52.6851,0,U,23705,999,58328,-.17253E-4,-.81E-6,0
